{
    "links": {
        "self": "http://www.neowsapp.com/rest/v1/neo/3762882?api_key=iIulBulltgU6a56xZRHN4H3l9WmuAYTsLGpBGhQ2"
    },
    "id": "3762882",
    "neo_reference_id": "3762882",
    "name": "(2016 UG101)",
    "designation": "2016 UG101",
    "nasa_jpl_url": "http://ssd.jpl.nasa.gov/sbdb.cgi?sstr=3762882",
    "absolute_magnitude_h": 24.3,
    "estimated_diameter": {
        "kilometers": {
            "estimated_diameter_min": 0.0366906138,
            "estimated_diameter_max": 0.0820427065
        },
        "meters": {
            "estimated_diameter_min": 36.6906137531,
            "estimated_diameter_max": 82.0427064882
        },
        "miles": {
            "estimated_diameter_min": 0.0227984834,
            "estimated_diameter_max": 0.0509789586
        },
        "feet": {
            "estimated_diameter_min": 120.3760332259,
            "estimated_diameter_max": 269.1689931548
        }
    },
    "is_potentially_hazardous_asteroid": false,
    "close_approach_data": [
        {
            "close_approach_date": "2016-10-24",
            "close_approach_date_full": "2016-Oct-24 20:51",
            "epoch_date_close_approach": 1477342260000,
            "relative_velocity": {
                "kilometers_per_second": "5.6693558324",
                "kilometers_per_hour": "20409.6809964979",
                "miles_per_hour": "12681.7820614073"
            },
            "miss_distance": {
                "astronomical": "0.1179125513",
                "lunar": "45.8679824557",
                "kilometers": "17639466.520745731",
                "miles": "10960656.2436078478"
            },
            "orbiting_body": "Earth"
        }
    ],
    "orbital_data": {
        "orbit_id": "8",
        "orbit_determination_date": "2017-04-06 08:22:36",
        "first_observation_date": "2016-10-30",
        "last_observation_date": "2016-12-07",
        "data_arc_in_days": 38,
        "observations_used": 42,
        "orbit_uncertainty": "7",
        "minimum_orbit_intersection": ".128571",
        "jupiter_tisserand_invariant": "3.246",
        "epoch_osculation": "2459000.5",
        "eccentricity": ".551850068075023",
        "semi_major_axis": "2.482638909364026",
        "inclination": "3.65816277963081",
        "ascending_node_longitude": "78.59804604236214",
        "orbital_period": "1428.791188798279",
        "perihelion_distance": "1.112594458225787",
        "perihelion_argument": "311.9461216913828",
        "aphelion_distance": "3.852683360502264",
        "perihelion_time": "2459112.605180792503",
        "mean_anomaly": "331.7538396081201",
        "mean_motion": ".2519612402584783",
        "equinox": "J2000",
        "orbit_class": {
            "orbit_class_type": "AMO",
            "orbit_class_description": "Near-Earth asteroid orbits similar to that of 1221 Amor",
            "orbit_class_range": "1.017 AU < q (perihelion) < 1.3 AU"
        }
    },
    "is_sentry_object": false
}